{
  "type": "FeatureCollection",
  "features": [
    {
      "type": "Feature",
      "properties": {
        "norad_id": 66441,
        "name": "STARLINK-35426",
        "group": "last-30-days",
        "lat": -42.69156115725103,
        "lon": 21.1514173660499,
        "alt_km": 417.3842920338684,
        "timestamp": "2025-12-03T04:52:28.420023+00:00",
        "meta_object_name": "STARLINK-35426",
        "meta_object_id": "2025-259V",
        "meta_epoch": "2025-12-02T20:00:03.000384",
        "meta_mean_motion": 15.50558462,
        "meta_eccentricity": 0.0001397,
        "meta_inclination": 43,
        "meta_ra_of_asc_node": 105.1924,
        "meta_arg_of_pericenter": 267.5095,
        "meta_mean_anomaly": 102.0723,
        "meta_ephemeris_type": 0,
        "meta_classification_type": "U",
        "meta_norad_cat_id": 66441,
        "meta_element_set_no": 999,
        "meta_rev_at_epoch": 468,
        "meta_bstar": 0.00097878,
        "meta_mean_motion_dot": 0.00057459,
        "meta_mean_motion_ddot": 0,
        "tle_line1": "1 66441U 25259V   25336.83336806  .00057459  00000+0  97878-3 0  9991",
        "tle_line2": "2 66441  43.0000 105.1924 0001397 267.5095 102.0723 15.50558462  4680"
      },
      "geometry": {
        "type": "Point",
        "coordinates": [
          21.1514173660499,
          -42.69156115725103
        ]
      }
    },
    {
      "type": "Feature",
      "properties": {
        "norad_id": 66442,
        "name": "STARLINK-34724",
        "group": "last-30-days",
        "lat": -42.46849305008453,
        "lon": 23.83320507396686,
        "alt_km": 417.1977380181461,
        "timestamp": "2025-12-03T04:52:28.420033+00:00",
        "meta_object_name": "STARLINK-34724",
        "meta_object_id": "2025-259W",
        "meta_epoch": "2025-12-02T20:00:03.000384",
        "meta_mean_motion": 15.50539063,
        "meta_eccentricity": 0.0001837,
        "meta_inclination": 43,
        "meta_ra_of_asc_node": 105.1889,
        "meta_arg_of_pericenter": 278.6393,
        "meta_mean_anomaly": 92.9796,
        "meta_ephemeris_type": 0,
        "meta_classification_type": "U",
        "meta_norad_cat_id": 66442,
        "meta_element_set_no": 999,
        "meta_rev_at_epoch": 468,
        "meta_bstar": 0.00044001,
        "meta_mean_motion_dot": 0.00025519,
        "meta_mean_motion_ddot": 0,
        "tle_line1": "1 66442U 25259W   25336.83336806  .00025519  00000+0  44001-3 0  9994",
        "tle_line2": "2 66442  43.0000 105.1889 0001837 278.6393  92.9796 15.50539063  4687"
      },
      "geometry": {
        "type": "Point",
        "coordinates": [
          23.83320507396686,
          -42.46849305008453
        ]
      }
    },
    {
      "type": "Feature",
      "properties": {
        "norad_id": 66443,
        "name": "STARLINK-35219",
        "group": "last-30-days",
        "lat": -42.194761181690964,
        "lon": 26.39592086126877,
        "alt_km": 417.22520450968295,
        "timestamp": "2025-12-03T04:52:28.420043+00:00",
        "meta_object_name": "STARLINK-35219",
        "meta_object_id": "2025-259X",
        "meta_epoch": "2025-12-02T20:00:03.000384",
        "meta_mean_motion": 15.50569362,
        "meta_eccentricity": 0.0001773,
        "meta_inclination": 43.0001,
        "meta_ra_of_asc_node": 105.1844,
        "meta_arg_of_pericenter": 276.4723,
        "meta_mean_anomaly": 97.0448,
        "meta_ephemeris_type": 0,
        "meta_classification_type": "U",
        "meta_norad_cat_id": 66443,
        "meta_element_set_no": 999,
        "meta_rev_at_epoch": 458,
        "meta_bstar": -0.00024026,
        "meta_mean_motion_dot": -0.00014406,
        "meta_mean_motion_ddot": 0,
        "tle_line1": "1 66443U 25259X   25336.83336806 -.00014406  00000+0 -24026-3 0  9995",
        "tle_line2": "2 66443  43.0001 105.1844 0001773 276.4723  97.0448 15.50569362  4586"
      },
      "geometry": {
        "type": "Point",
        "coordinates": [
          26.39592086126877,
          -42.194761181690964
        ]
      }
    },
    {
      "type": "Feature",
      "properties": {
        "norad_id": 66444,
        "name": "STARLINK-35360",
        "group": "last-30-days",
        "lat": -41.059307974100186,
        "lon": 33.80813048991309,
        "alt_km": 417.2061128551086,
        "timestamp": "2025-12-03T04:52:28.420054+00:00",
        "meta_object_name": "STARLINK-35360",
        "meta_object_id": "2025-259Y",
        "meta_epoch": "2025-12-02T20:00:03.000384",
        "meta_mean_motion": 15.50548863,
        "meta_eccentricity": 0.0001581,
        "meta_inclination": 43.0001,
        "meta_ra_of_asc_node": 105.1691,
        "meta_arg_of_pericenter": 261.5299,
        "meta_mean_anomaly": 117.6277,
        "meta_ephemeris_type": 0,
        "meta_classification_type": "U",
        "meta_norad_cat_id": 66444,
        "meta_element_set_no": 999,
        "meta_rev_at_epoch": 468,
        "meta_bstar": 0.0016439,
        "meta_mean_motion_dot": 0.000972,
        "meta_mean_motion_ddot": 0,
        "tle_line1": "1 66444U 25259Y   25336.83336806  .00097200  00000+0  16439-2 0  9995",
        "tle_line2": "2 66444  43.0001 105.1691 0001581 261.5299 117.6277 15.50548863  4680"
      },
      "geometry": {
        "type": "Point",
        "coordinates": [
          33.80813048991309,
          -41.059307974100186
        ]
      }
    },
    {
      "type": "Feature",
      "properties": {
        "norad_id": 66445,
        "name": "STARLINK-34698",
        "group": "last-30-days",
        "lat": -41.881619856868724,
        "lon": 28.80834163638652,
        "alt_km": 417.2345790896052,
        "timestamp": "2025-12-03T04:52:28.420082+00:00",
        "meta_object_name": "STARLINK-34698",
        "meta_object_id": "2025-259Z",
        "meta_epoch": "2025-12-02T20:00:03.000384",
        "meta_mean_motion": 15.50493036,
        "meta_eccentricity": 0.0001432,
        "meta_inclination": 42.9999,
        "meta_ra_of_asc_node": 105.1787,
        "meta_arg_of_pericenter": 266.1881,
        "meta_mean_anomaly": 109.1484,
        "meta_ephemeris_type": 0,
        "meta_classification_type": "U",
        "meta_norad_cat_id": 66445,
        "meta_element_set_no": 999,
        "meta_rev_at_epoch": 457,
        "meta_bstar": 0.0034001,
        "meta_mean_motion_dot": 0.00203782,
        "meta_mean_motion_ddot": 0,
        "tle_line1": "1 66445U 25259Z   25336.83336806  .00203782  00000+0  34001-2 0  9995",
        "tle_line2": "2 66445  42.9999 105.1787 0001432 266.1881 109.1484 15.50493036  4579"
      },
      "geometry": {
        "type": "Point",
        "coordinates": [
          28.80834163638652,
          -41.881619856868724
        ]
      }
    },
    {
      "type": "Feature",
      "properties": {
        "norad_id": 66446,
        "name": "STARLINK-34986",
        "group": "last-30-days",
        "lat": -41.49295677513694,
        "lon": 31.349712732824862,
        "alt_km": 417.2252313824047,
        "timestamp": "2025-12-03T04:52:28.420093+00:00",
        "meta_object_name": "STARLINK-34986",
        "meta_object_id": "2025-259AA",
        "meta_epoch": "2025-12-02T20:00:03.000384",
        "meta_mean_motion": 15.50606682,
        "meta_eccentricity": 0.0001606,
        "meta_inclination": 42.9998,
        "meta_ra_of_asc_node": 105.1723,
        "meta_arg_of_pericenter": 264.7987,
        "meta_mean_anomaly": 112.43,
        "meta_ephemeris_type": 0,
        "meta_classification_type": "U",
        "meta_norad_cat_id": 66446,
        "meta_element_set_no": 999,
        "meta_rev_at_epoch": 468,
        "meta_bstar": -8.3467e-05,
        "meta_mean_motion_dot": -5.24e-05,
        "meta_mean_motion_ddot": 0,
        "tle_line1": "1 66446U 25259AA  25336.83336806 -.00005240  00000+0 -83467-4 0  9999",
        "tle_line2": "2 66446  42.9998 105.1723 0001606 264.7987 112.4300 15.50606682  4682"
      },
      "geometry": {
        "type": "Point",
        "coordinates": [
          31.349712732824862,
          -41.49295677513694
        ]
      }
    },
    {
      "type": "Feature",
      "properties": {
        "norad_id": 66447,
        "name": "STARLINK-34851",
        "group": "last-30-days",
        "lat": -40.54749339492561,
        "lon": 36.351830798303666,
        "alt_km": 417.00688082856504,
        "timestamp": "2025-12-03T04:52:28.420103+00:00",
        "meta_object_name": "STARLINK-34851",
        "meta_object_id": "2025-259AB",
        "meta_epoch": "2025-12-02T20:00:03.000384",
        "meta_mean_motion": 15.50512045,
        "meta_eccentricity": 0.0001863,
        "meta_inclination": 42.9998,
        "meta_ra_of_asc_node": 105.1635,
        "meta_arg_of_pericenter": 277.5357,
        "meta_mean_anomaly": 103.6672,
        "meta_ephemeris_type": 0,
        "meta_classification_type": "U",
        "meta_norad_cat_id": 66447,
        "meta_element_set_no": 999,
        "meta_rev_at_epoch": 458,
        "meta_bstar": 0.0018862,
        "meta_mean_motion_dot": 0.00111641,
        "meta_mean_motion_ddot": 0,
        "tle_line1": "1 66447U 25259AB  25336.83336806  .00111641  00000+0  18862-2 0  9996",
        "tle_line2": "2 66447  42.9998 105.1635 0001863 277.5357 103.6672 15.50512045  4585"
      },
      "geometry": {
        "type": "Point",
        "coordinates": [
          36.351830798303666,
          -40.54749339492561
        ]
      }
    }
  ]
}